sat06765
1 06765U 70025NG  20046.70689137  .00000046  00000-0  13298-3 0  9997
2 06765  99.7708 325.7316 0016120 355.9539  65.0023 13.54596346457370
